{"type": "FeatureCollection", "features": [ {"type": "Feature", "properties": {"norad_id": 39583, "name": "COSMOS 2251 DEB", "group": "cosmos-2251-debris", "lat": 17.04072369104836, "lon": 79.61953688645796, "alt_km": 768.9215588890702, "timestamp": "2025-12-03T15:48:03.464170+00:00", "meta": {"OBJECT_NAME": "COSMOS 2251 DEB", "OBJECT_ID": "1993-036BUN", "EPOCH": "2025-11-27T12:42:33.573600", "MEAN_MOTION": 14.59944604, "ECCENTRICITY": 0.01366231, "INCLINATION": 73.9339, "RA_OF_ASC_NODE": 276.4544, "ARG_OF_PERICENTER": 32.9946, "MEAN_ANOMALY": 327.9651, "EPHEMERIS_TYPE": 0, "CLASSIFICATION_TYPE": "U", "NORAD_CAT_ID": 39583, "ELEMENT_SET_NO": 999, "REV_AT_EPOCH": 61557, "BSTAR": 0.0020438772, "MEAN_MOTION_DOT": 0.00011155, "MEAN_MOTION_DDOT": 0}, "tle": {"line1": "1 39583U 93036BUN 25331.52955525  .00011155  00000+0  20439-2 0  9993", "line2": "2 39583  73.9339 276.4544 0136623  32.9946 327.9651 14.59944604615573"}}, "geometry": {"type": "Point", "coordinates": [79.61953688645796, 17.04072369104836]}}, {"type": "Feature", "properties": {"norad_id": 39585, "name": "COSMOS 2251 DEB", "group": "cosmos-2251-debris", "lat": 37.80327825911341, "lon": -28.56661785769357, "alt_km": 660.4159661901431, "timestamp": "2025-12-03T15:48:03.464179+00:00", "meta": {"OBJECT_NAME": "COSMOS 2251 DEB", "OBJECT_ID": "1993-036BUQ", "EPOCH": "2025-11-29T06:16:21.203328", "MEAN_MOTION": 14.58611374, "ECCENTRICITY": 0.00652828, "INCLINATION": 74.0406, "RA_OF_ASC_NODE": 326.9733, "ARG_OF_PERICENTER": 91.8532, "MEAN_ANOMALY": 269.0111, "EPHEMERIS_TYPE": 0, "CLASSIFICATION_TYPE": "U", "NORAD_CAT_ID": 39585, "ELEMENT_SET_NO": 999, "REV_AT_EPOCH": 62324, "BSTAR": 0.00023928135, "MEAN_MOTION_DOT": 1.117e-05, "MEAN_MOTION_DDOT": 0}, "tle": {"line1": "1 39585U 93036BUQ 25333.26135652  .00001117  00000+0  23928-3 0  9993", "line2": "2 39585  74.0406 326.9733 0065282  91.8532 269.0111 14.58611374623244"}}, "geometry": {"type": "Point", "coordinates": [-28.56661785769357, 37.80327825911341]}}, {"type": "Feature", "properties": {"norad_id": 39586, "name": "COSMOS 2251 DEB", "group": "cosmos-2251-debris", "lat": -21.964794903162694, "lon": -122.09251119592422, "alt_km": 774.0000738403442, "timestamp": "2025-12-03T15:48:03.464187+00:00", "meta": {"OBJECT_NAME": "COSMOS 2251 DEB", "OBJECT_ID": "1993-036BUR", "EPOCH": "2025-12-03T00:45:17.484768", "MEAN_MOTION": 14.21190507, "ECCENTRICITY": 0.01005019, "INCLINATION": 74.0096, "RA_OF_ASC_NODE": 245.6735, "ARG_OF_PERICENTER": 22.6165, "MEAN_ANOMALY": 349.1523, "EPHEMERIS_TYPE": 0, "CLASSIFICATION_TYPE": "U", "NORAD_CAT_ID": 39586, "ELEMENT_SET_NO": 999, "REV_AT_EPOCH": 60834, "BSTAR": 0.00065077567, "MEAN_MOTION_DOT": 1.465e-05, "MEAN_MOTION_DDOT": 0}, "tle": {"line1": "1 39586U 93036BUR 25337.03145237  .00001465  00000+0  65078-3 0  9991", "line2": "2 39586  74.0096 245.6735 0100501  22.6165 349.1523 14.21190507608348"}}, "geometry": {"type": "Point", "coordinates": [-122.09251119592422, -21.964794903162694]}}, {"type": "Feature", "properties": {"norad_id": 39591, "name": "COSMOS 2251 DEB", "group": "cosmos-2251-debris", "lat": -73.57487049281762, "lon": -172.7065182702305, "alt_km": 765.0045421847826, "timestamp": "2025-12-03T15:48:03.464196+00:00", "meta": {"OBJECT_NAME": "COSMOS 2251 DEB", "OBJECT_ID": "1993-036BUW", "EPOCH": "2025-12-02T01:57:06.430752", "MEAN_MOTION": 14.41775079, "ECCENTRICITY": 0.00288186, "INCLINATION": 74.0265, "RA_OF_ASC_NODE": 266.5373, "ARG_OF_PERICENTER": 22.6115, "MEAN_ANOMALY": 349.3407, "EPHEMERIS_TYPE": 0, "CLASSIFICATION_TYPE": "U", "NORAD_CAT_ID": 39591, "ELEMENT_SET_NO": 999, "REV_AT_EPOCH": 61623, "BSTAR": 0.00055457771, "MEAN_MOTION_DOT": 1.794e-05, "MEAN_MOTION_DDOT": 0}, "tle": {"line1": "1 39591U 93036BUW 25336.08132443  .00001794  00000+0  55458-3 0  9992", "line2": "2 39591  74.0265 266.5373 0028818  22.6115 349.3407 14.41775079616232"}}, "geometry": {"type": "Point", "coordinates": [-172.7065182702305, -73.57487049281762]}}, {"type": "Feature", "properties": {"norad_id": 40218, "name": "COSMOS 2251 DEB", "group": "cosmos-2251-debris", "lat": 4.094371582584531, "lon": 84.48066881184431, "alt_km": 767.0691360857118, "timestamp": "2025-12-03T15:48:03.464205+00:00", "meta": {"OBJECT_NAME": "COSMOS 2251 DEB", "OBJECT_ID": "1993-036BUX", "EPOCH": "2025-12-02T02:20:48.132384", "MEAN_MOTION": 14.41546301, "ECCENTRICITY": 0.00163619, "INCLINATION": 74.0309, "RA_OF_ASC_NODE": 268.5457, "ARG_OF_PERICENTER": 353.795, "MEAN_ANOMALY": 6.3, "EPHEMERIS_TYPE": 0, "CLASSIFICATION_TYPE": "U", "NORAD_CAT_ID": 40218, "ELEMENT_SET_NO": 999, "REV_AT_EPOCH": 58708, "BSTAR": 0.00047133972, "MEAN_MOTION_DOT": 1.508e-05, "MEAN_MOTION_DDOT": 0}, "tle": {"line1": "1 40218U 93036BUX 25336.09777931  .00001508  00000+0  47134-3 0  9993", "line2": "2 40218  74.0309 268.5457 0016361 353.7950   6.3000 14.41546301587082"}}, "geometry": {"type": "Point", "coordinates": [84.48066881184431, 4.094371582584531]}}, {"type": "Feature", "properties": {"norad_id": 40223, "name": "COSMOS 2251 DEB", "group": "cosmos-2251-debris", "lat": -51.3629978376381, "lon": 86.22181597781697, "alt_km": 558.799033832126, "timestamp": "2025-12-03T15:48:03.464214+00:00", "meta": {"OBJECT_NAME": "COSMOS 2251 DEB", "OBJECT_ID": "1993-036BVC", "EPOCH": "2025-11-30T19:57:11.530080", "MEAN_MOTION": 15.0129808, "ECCENTRICITY": 0.00135519, "INCLINATION": 73.9359, "RA_OF_ASC_NODE": 113.1436, "ARG_OF_PERICENTER": 301.6161, "MEAN_ANOMALY": 209.1516, "EPHEMERIS_TYPE": 0, "CLASSIFICATION_TYPE": "U", "NORAD_CAT_ID": 40223, "ELEMENT_SET_NO": 999, "REV_AT_EPOCH": 59195, "BSTAR": 0.0064720663, "MEAN_MOTION_DOT": 0.00084415, "MEAN_MOTION_DDOT": 0}, "tle": {"line1": "1 40223U 93036BVC 25334.83138345  .00084415  00000+0  64721-2 0  9997", "line2": "2 40223  73.9359 113.1436 0013551 301.6161 209.1516 15.01298080591958"}}, "geometry": {"type": "Point", "coordinates": [86.22181597781697, -51.3629978376381]}}, {"type": "Feature", "properties": {"norad_id": 40228, "name": "COSMOS 2251 DEB", "group": "cosmos-2251-debris", "lat": 73.45405484001157, "lon": -8.455988434291191, "alt_km": 752.4313037836828, "timestamp": "2025-12-03T15:48:03.464224+00:00", "meta": {"OBJECT_NAME": "COSMOS 2251 DEB", "OBJECT_ID": "1993-036BVH", "EPOCH": "2025-11-30T14:54:47.611296", "MEAN_MOTION": 14.40947575, "ECCENTRICITY": 0.0023645, "INCLINATION": 74.0546, "RA_OF_ASC_NODE": 282.9283, "ARG_OF_PERICENTER": 346.4377, "MEAN_ANOMALY": 191.0914, "EPHEMERIS_TYPE": 0, "CLASSIFICATION_TYPE": "U", "NORAD_CAT_ID": 40228, "ELEMENT_SET_NO": 999, "REV_AT_EPOCH": 58746, "BSTAR": 0.00037702, "MEAN_MOTION_DOT": 1.188e-05, "MEAN_MOTION_DDOT": 0}, "tle": {"line1": "1 40228U 93036BVH 25334.62138439  .00001188  00000+0  37702-3 0  9999", "line2": "2 40228  74.0546 282.9283 0023645 346.4377 191.0914 14.40947575587463"}}, "geometry": {"type": "Point", "coordinates": [-8.455988434291191, 73.45405484001157]}}, {"type": "Feature", "properties": {"norad_id": 40230, "name": "COSMOS 2251 DEB", "group": "cosmos-2251-debris", "lat": -22.346076407037067, "lon": -122.83885906883611, "alt_km": 721.9390138548843, "timestamp": "2025-12-03T15:48:03.464233+00:00", "meta": {"OBJECT_NAME": "COSMOS 2251 DEB", "OBJECT_ID": "1993-036BVK", "EPOCH": "2025-12-01T11:25:53.279904", "MEAN_MOTION": 14.49219846, "ECCENTRICITY": 0.00191733, "INCLINATION": 74.0459, "RA_OF_ASC_NODE": 248.0026, "ARG_OF_PERICENTER": 306.9288, "MEAN_ANOMALY": 170.1054, "EPHEMERIS_TYPE": 0, "CLASSIFICATION_TYPE": "U", "NORAD_CAT_ID": 40230, "ELEMENT_SET_NO": 999, "REV_AT_EPOCH": 58808, "BSTAR": 0.00090515824, "MEAN_MOTION_DOT": 3.43e-05, "MEAN_MOTION_DDOT": 0}, "tle": {"line1": "1 40230U 93036BVK 25335.47631111  .00003430  00000+0  90516-3 0  9995", "line2": "2 40230  74.0459 248.0026 0019173 306.9288 170.1054 14.49219846588084"}}, "geometry": {"type": "Point", "coordinates": [-122.83885906883611, -22.346076407037067]}}, {"type": "Feature", "properties": {"norad_id": 40233, "name": "COSMOS 2251 DEB", "group": "cosmos-2251-debris", "lat": -42.87594023856787, "lon": -43.99192089761412, "alt_km": 676.2267900256602, "timestamp": "2025-12-03T15:48:03.464242+00:00", "meta": {"OBJECT_NAME": "COSMOS 2251 DEB", "OBJECT_ID": "1993-036BVN", "EPOCH": "2025-11-29T16:55:06.040992", "MEAN_MOTION": 14.58149893, "ECCENTRICITY": 0.00465907, "INCLINATION": 73.9381, "RA_OF_ASC_NODE": 128.0565, "ARG_OF_PERICENTER": 205.1304, "MEAN_ANOMALY": 154.7594, "EPHEMERIS_TYPE": 0, "CLASSIFICATION_TYPE": "U", "NORAD_CAT_ID": 40233, "ELEMENT_SET_NO": 999, "REV_AT_EPOCH": 58947, "BSTAR": 0.0013059078, "MEAN_MOTION_DOT": 6.085e-05, "MEAN_MOTION_DDOT": 0}, "tle": {"line1": "1 40233U 93036BVN 25333.70493103  .00006085  00000+0  13059-2 0  9994", "line2": "2 40233  73.9381 128.0565 0046590 205.1304 154.7594 14.58149893589471"}}, "geometry": {"type": "Point", "coordinates": [-43.99192089761412, -42.87594023856787]}}, {"type": "Feature", "properties": {"norad_id": 40236, "name": "COSMOS 2251 DEB", "group": "cosmos-2251-debris", "lat": -40.39918890848729, "lon": 143.49299636497702, "alt_km": 1093.2985028696612, "timestamp": "2025-12-03T15:48:03.464251+00:00", "meta": {"OBJECT_NAME": "COSMOS 2251 DEB", "OBJECT_ID": "1993-036BVR", "EPOCH": "2025-11-24T19:56:56.097312", "MEAN_MOTION": 13.24604738, "ECCENTRICITY": 0.0536049, "INCLINATION": 73.5357, "RA_OF_ASC_NODE": 171.9764, "ARG_OF_PERICENTER": 53.9086, "MEAN_ANOMALY": 311.0422, "EPHEMERIS_TYPE": 0, "CLASSIFICATION_TYPE": "U", "NORAD_CAT_ID": 40236, "ELEMENT_SET_NO": 999, "REV_AT_EPOCH": 53387, "BSTAR": 0.0012678, "MEAN_MOTION_DOT": 1.163e-05, "MEAN_MOTION_DDOT": 0}, "tle": {"line1": "1 40236U 93036BVR 25328.83120483  .00001163  00000+0  12678-2 0  9991", "line2": "2 40236  73.5357 171.9764 0536049  53.9086 311.0422 13.24604738533877"}}, "geometry": {"type": "Point", "coordinates": [143.49299636497702, -40.39918890848729]}}]}